GAOFEN-12 03            
1 52912U 22069A   26141.88864204  .00000279  00000+0  43554-4 0  9994
2 52912  97.8304  30.4183 0000843 106.3397 253.7908 14.79985384210729
SWOT                    
1 54754U 22173A   26141.62163025  .00000102  00000+0  70971-4 0  9999
2 54754  77.6108  71.1700 0000979  93.2085 266.9178 14.00173059175433
GAOFEN-12 04            
1 57654U 23123A   26141.90871637  .00000594  00000+0  84986-4 0  9999
2 57654  97.9131  60.3038 0001640  93.4853 266.6547 14.80169646148747
PARS 1                  
1 59065U 24039Q   26141.96167872  .00008069  00000+0  17215-3 0  9994
2 59065  97.4819 122.0703 0008710 196.7724 163.3238 15.45128629124592
RESURS-P 4              
1 59371U 24061A   26141.94147215  .00002229  00000+0  74701-4 0  9992
2 59371  97.2741  90.3034 0000778  66.4886 293.6438 15.31960621119747
LEGION 1                
1 59625U 24081A   26141.90083211  .00003144  00000+0  16261-3 0  9990
2 59625  97.5016 220.0420 0011597 109.6434 250.6052 15.16930874113556
LEGION 2                
1 59626U 24081B   26141.93048717  .00002657  00000+0  13986-3 0  9995
2 59626  97.5015 220.1697 0012989  71.6337 288.6307 15.16433965113563
ALOS-4 (DAICHI-4)       
1 60182U 24123A   26141.84931802  .00000860  00000+0  12198-3 0  9995
2 60182  97.9228 239.3939 0001647  96.9177 263.2222 14.79473320101989
LEGION 3                
1 60452U 24146A   26141.90370512  .00001851  00000+0  10880-3 0  9999
2 60452  45.0002 171.4949 0007908   1.9045 358.1862 15.15819757 98030
LEGION 4                
1 60453U 24146B   26141.84097379  .00002704  00000+0  15257-3 0  9991
2 60453  45.0015 263.7430 0012788 167.2688 192.8516 15.15818927 96873
SENTINEL-2C             
1 60989U 24157A   26141.80889675  .00000064  00000+0  41171-4 0  9993
2 60989  98.5696 216.9630 0001458  87.0937 273.0413 14.30821477 89213
IONOSFERA-M 1           
1 61735U 24199A   26141.89184584  .00000018  00000+0  27786-4 0  9990
2 61735  98.7206  15.3373 0000910 143.0381 217.0860 14.22748910123961
IONOSFERA-M 2           
1 61736U 24199B   26141.92620486  .00000031  00000+0  33540-4 0  9991
2 61736  98.7204  15.2822 0001877  66.0117 294.1258 14.22752014127097
