
    {
        "ARG_OF_PERICENTER": 106.3397,
        "BSTAR": 4.355373e-05,
        "CLASSIFICATION_TYPE": "U",
        "ECCENTRICITY": 8.439e-05,
        "ELEMENT_SET_NO": 999,
        "EPHEMERIS_TYPE": 0,
        "EPOCH": "2026-05-21T21:19:38.672256",
        "INCLINATION": 97.8304,
        "MEAN_ANOMALY": 253.7908,
        "MEAN_MOTION": 14.79985384,
        "MEAN_MOTION_DDOT": 0,
        "MEAN_MOTION_DOT": 2.79e-06,
        "NORAD_CAT_ID": 52912,
        "OBJECT_ID": "2022-069A",
        "OBJECT_NAME": "GAOFEN-12 03",
        "RA_OF_ASC_NODE": 30.4183,
        "REV_AT_EPOCH": 21072
    },
    {
        "ARG_OF_PERICENTER": 93.2085,
        "BSTAR": 7.0970512e-05,
        "CLASSIFICATION_TYPE": "U",
        "ECCENTRICITY": 9.791e-05,
        "ELEMENT_SET_NO": 999,
        "EPHEMERIS_TYPE": 0,
        "EPOCH": "2026-05-21T14:55:08.853600",
        "INCLINATION": 77.6108,
        "MEAN_ANOMALY": 266.9178,
        "MEAN_MOTION": 14.00173059,
        "MEAN_MOTION_DDOT": 0,
        "MEAN_MOTION_DOT": 1.02e-06,
        "NORAD_CAT_ID": 54754,
        "OBJECT_ID": "2022-173A",
        "OBJECT_NAME": "SWOT",
        "RA_OF_ASC_NODE": 71.17,
        "REV_AT_EPOCH": 17543
    },
    {
        "ARG_OF_PERICENTER": 93.4853,
        "BSTAR": 8.4985667e-05,
        "CLASSIFICATION_TYPE": "U",
        "ECCENTRICITY": 0.00016408,
        "ELEMENT_SET_NO": 999,
        "EPHEMERIS_TYPE": 0,
        "EPOCH": "2026-05-21T21:48:33.094368",
        "INCLINATION": 97.9131,
        "MEAN_ANOMALY": 266.6547,
        "MEAN_MOTION": 14.80169646,
        "MEAN_MOTION_DDOT": 0,
        "MEAN_MOTION_DOT": 5.94e-06,
        "NORAD_CAT_ID": 57654,
        "OBJECT_ID": "2023-123A",
        "OBJECT_NAME": "GAOFEN-12 04",
        "RA_OF_ASC_NODE": 60.3038,
        "REV_AT_EPOCH": 14874
    },
    {
        "ARG_OF_PERICENTER": 196.7724,
        "BSTAR": 0.00017215295,
        "CLASSIFICATION_TYPE": "U",
        "ECCENTRICITY": 0.00087101,
        "ELEMENT_SET_NO": 999,
        "EPHEMERIS_TYPE": 0,
        "EPOCH": "2026-05-21T23:04:49.041408",
        "INCLINATION": 97.4819,
        "MEAN_ANOMALY": 163.3238,
        "MEAN_MOTION": 15.45128629,
        "MEAN_MOTION_DDOT": 0,
        "MEAN_MOTION_DOT": 8.069e-05,
        "NORAD_CAT_ID": 59065,
        "OBJECT_ID": "2024-039Q",
        "OBJECT_NAME": "PARS 1",
        "RA_OF_ASC_NODE": 122.0703,
        "REV_AT_EPOCH": 12459
    },
    {
        "ARG_OF_PERICENTER": 66.4886,
        "BSTAR": 7.4701277e-05,
        "CLASSIFICATION_TYPE": "U",
        "ECCENTRICITY": 7.78e-05,
        "ELEMENT_SET_NO": 999,
        "EPHEMERIS_TYPE": 0,
        "EPOCH": "2026-05-21T22:35:43.193760",
        "INCLINATION": 97.2741,
        "MEAN_ANOMALY": 293.6438,
        "MEAN_MOTION": 15.31960621,
        "MEAN_MOTION_DDOT": 0,
        "MEAN_MOTION_DOT": 2.229e-05,
        "NORAD_CAT_ID": 59371,
        "OBJECT_ID": "2024-061A",
        "OBJECT_NAME": "RESURS-P 4",
        "RA_OF_ASC_NODE": 90.3034,
        "REV_AT_EPOCH": 11974
    },
    {
        "ARG_OF_PERICENTER": 109.6434,
        "BSTAR": 0.00016261103,
        "CLASSIFICATION_TYPE": "U",
        "ECCENTRICITY": 0.00115978,
        "ELEMENT_SET_NO": 999,
        "EPHEMERIS_TYPE": 0,
        "EPOCH": "2026-05-21T21:37:11.894304",
        "INCLINATION": 97.5016,
        "MEAN_ANOMALY": 250.6052,
        "MEAN_MOTION": 15.16930874,
        "MEAN_MOTION_DDOT": 0,
        "MEAN_MOTION_DOT": 3.144e-05,
        "NORAD_CAT_ID": 59625,
        "OBJECT_ID": "2024-081A",
        "OBJECT_NAME": "LEGION 1",
        "RA_OF_ASC_NODE": 220.042,
        "REV_AT_EPOCH": 11355
    },
    {
        "ARG_OF_PERICENTER": 71.6337,
        "BSTAR": 0.00013986074,
        "CLASSIFICATION_TYPE": "U",
        "ECCENTRICITY": 0.00129895,
        "ELEMENT_SET_NO": 999,
        "EPHEMERIS_TYPE": 0,
        "EPOCH": "2026-05-21T22:19:54.091488",
        "INCLINATION": 97.5015,
        "MEAN_ANOMALY": 288.6307,
        "MEAN_MOTION": 15.16433965,
        "MEAN_MOTION_DDOT": 0,
        "MEAN_MOTION_DOT": 2.657e-05,
        "NORAD_CAT_ID": 59626,
        "OBJECT_ID": "2024-081B",
        "OBJECT_NAME": "LEGION 2",
        "RA_OF_ASC_NODE": 220.1697,
        "REV_AT_EPOCH": 11356
    },
    {
        "ARG_OF_PERICENTER": 96.9177,
        "BSTAR": 0.00012198388,
        "CLASSIFICATION_TYPE": "U",
        "ECCENTRICITY": 0.00016472,
        "ELEMENT_SET_NO": 999,
        "EPHEMERIS_TYPE": 0,
        "EPOCH": "2026-05-21T20:23:01.076928",
        "INCLINATION": 97.9228,
        "MEAN_ANOMALY": 263.2222,
        "MEAN_MOTION": 14.7947332,
        "MEAN_MOTION_DDOT": 0,
        "MEAN_MOTION_DOT": 8.6e-06,
        "NORAD_CAT_ID": 60182,
        "OBJECT_ID": "2024-123A",
        "OBJECT_NAME": "ALOS-4 (DAICHI-4)",
        "RA_OF_ASC_NODE": 239.3939,
        "REV_AT_EPOCH": 10198
    },
    {
        "ARG_OF_PERICENTER": 1.9045,
        "BSTAR": 0.000108804,
        "CLASSIFICATION_TYPE": "U",
        "ECCENTRICITY": 0.00079089,
        "ELEMENT_SET_NO": 999,
        "EPHEMERIS_TYPE": 0,
        "EPOCH": "2026-05-21T21:41:20.122368",
        "INCLINATION": 45.0002,
        "MEAN_ANOMALY": 358.1862,
        "MEAN_MOTION": 15.15819757,
        "MEAN_MOTION_DDOT": 0,
        "MEAN_MOTION_DOT": 1.851e-05,
        "NORAD_CAT_ID": 60452,
        "OBJECT_ID": "2024-146A",
        "OBJECT_NAME": "LEGION 3",
        "RA_OF_ASC_NODE": 171.4949,
        "REV_AT_EPOCH": 9803
    },
    {
        "ARG_OF_PERICENTER": 167.2688,
        "BSTAR": 0.00015256596,
        "CLASSIFICATION_TYPE": "U",
        "ECCENTRICITY": 0.00127883,
        "ELEMENT_SET_NO": 999,
        "EPHEMERIS_TYPE": 0,
        "EPOCH": "2026-05-21T20:11:00.135456",
        "INCLINATION": 45.0015,
        "MEAN_ANOMALY": 192.8516,
        "MEAN_MOTION": 15.15818927,
        "MEAN_MOTION_DDOT": 0,
        "MEAN_MOTION_DOT": 2.704e-05,
        "NORAD_CAT_ID": 60453,
        "OBJECT_ID": "2024-146B",
        "OBJECT_NAME": "LEGION 4",
        "RA_OF_ASC_NODE": 263.743,
        "REV_AT_EPOCH": 9687
    },
    {
        "ARG_OF_PERICENTER": 87.0937,
        "BSTAR": 4.1171239e-05,
        "CLASSIFICATION_TYPE": "U",
        "ECCENTRICITY": 0.00014589,
        "ELEMENT_SET_NO": 999,
        "EPHEMERIS_TYPE": 0,
        "EPOCH": "2026-05-21T19:24:48.679200",
        "INCLINATION": 98.5696,
        "MEAN_ANOMALY": 273.0413,
        "MEAN_MOTION": 14.30821477,
        "MEAN_MOTION_DDOT": 0,
        "MEAN_MOTION_DOT": 6.4e-07,
        "NORAD_CAT_ID": 60989,
        "OBJECT_ID": "2024-157A",
        "OBJECT_NAME": "SENTINEL-2C",
        "RA_OF_ASC_NODE": 216.963,
        "REV_AT_EPOCH": 8921
    },
    {
        "ARG_OF_PERICENTER": 143.0381,
        "BSTAR": 2.7786099e-05,
        "CLASSIFICATION_TYPE": "U",
        "ECCENTRICITY": 9.106e-05,
        "ELEMENT_SET_NO": 999,
        "EPHEMERIS_TYPE": 0,
        "EPOCH": "2026-05-21T21:24:15.480576",
        "INCLINATION": 98.7206,
        "MEAN_ANOMALY": 217.086,
        "MEAN_MOTION": 14.2274891,
        "MEAN_MOTION_DDOT": 0,
        "MEAN_MOTION_DOT": 1.8e-07,
        "NORAD_CAT_ID": 61735,
        "OBJECT_ID": "2024-199A",
        "OBJECT_NAME": "IONOSFERA-M 1",
        "RA_OF_ASC_NODE": 15.3373,
        "REV_AT_EPOCH": 12396
    },
    {
        "ARG_OF_PERICENTER": 66.0117,
        "BSTAR": 3.3540386e-05,
        "CLASSIFICATION_TYPE": "U",
        "ECCENTRICITY": 0.00018774,
        "ELEMENT_SET_NO": 999,
        "EPHEMERIS_TYPE": 0,
        "EPOCH": "2026-05-21T22:13:44.099904",
        "INCLINATION": 98.7204,
        "MEAN_ANOMALY": 294.1258,
        "MEAN_MOTION": 14.22752014,
        "MEAN_MOTION_DDOT": 0,
        "MEAN_MOTION_DOT": 3.1e-07,
        "NORAD_CAT_ID": 61736,
        "OBJECT_ID": "2024-199B",
        "OBJECT_NAME": "IONOSFERA-M 2",
        "RA_OF_ASC_NODE": 15.2822,
        "REV_AT_EPOCH": 12709
    }